ONEWEB-0158             
1 48054U 21025N   26161.19616737  .00000263  00000+0  68510-3 0  9990
2 48054  87.8956 321.6090 0001608  91.3451 268.7862 13.13471360252710
ONEWEB-0157             
1 48055U 21025P   26161.14537569  .00000019  00000+0  17017-4 0  9997
2 48055  87.8954 321.6250 0001934 106.4740 253.6602 13.13468985252644
ONEWEB-0162             
1 48056U 21025Q   26161.50242366  .00000324  00000+0  85164-3 0  9992
2 48056  87.8952 321.5548 0001985  94.0157 266.1199 13.13470202252669
ONEWEB-0155             
1 48057U 21025R   26161.20461906  .00000375  00000+0  99079-3 0  9999
2 48057  87.8953 321.6103 0001725 100.6525 259.4799 13.13469381252762
ONEWEB-0149             
1 48058U 21025S   26161.15045084 -.00000121  00000+0 -36651-3 0  9997
2 48058  87.8956 321.6242 0002023  93.6474 266.4887 13.13469474252563
ONEWEB-0148             
1 48059U 21025T   26161.49409415  .00000127  00000+0  31408-3 0  9996
2 48059  87.8949 321.5633 0002400  95.9626 264.1777 13.13470668252731
ONEWEB-0160             
1 48060U 21025U   26161.51102332  .00000350  00000+0  92378-3 0  9990
2 48060  87.8950 321.5561 0001607  71.0727 289.0576 13.13470714252689
ONEWEB-0163             
1 48061U 21025V   26161.49578260  .00000193  00000+0  49318-3 0  9996
2 48061  87.8955 321.5530 0001883 104.2297 255.9041 13.13471150252806
ONEWEB-0159             
1 48062U 21025W   26161.48731865  .00000000  00000+0 -34372-4 0  9991
2 48062  87.8959 321.5482 0001840 103.5090 256.6244 13.13471004252725
ONEWEB-0164             
1 48063U 21025X   26161.16398324 -.00000349  00000+0 -99006-3 0  9997
2 48063  87.8958 321.6187 0001756  93.3519 266.7811 13.13469954252662
ONEWEB-0167             
1 48064U 21025Y   26161.49661666  .00000153  00000+0  38453-3 0  9996
2 48064  87.8946 321.5631 0001477 116.2106 243.9176 13.13472468252698
ONEWEB-0166             
1 48065U 21025Z   26161.51947666  .00000325  00000+0  85441-3 0  9997
2 48065  87.8959 321.5293 0001998  96.9579 263.1778 13.13471028252775
ONEWEB-0151             
1 48066U 21025AA  26161.52117322  .00000297  00000+0  77867-3 0  9998
2 48066  87.8948 321.5463 0001683  97.2684 262.8636 13.13469547252711
ONEWEB-0170             
1 48067U 21025AB  26161.14874973 -.00000074  00000+0 -23871-3 0  9990
2 48067  87.8949 321.6223 0001385  87.6731 272.4556 13.13469413252623
ONEWEB-0168             
1 48068U 21025AC  26161.20969537  .00000297  00000+0  77750-3 0  9999
2 48068  87.8958 321.6097 0001910 100.5366 259.5979 13.13469287252642
ONEWEB-0173             
1 48069U 21025AD  26161.50594289  .00000400  00000+0  10613-2 0  9991
2 48069  87.8950 321.5528 0001799 107.9245 252.2080 13.13470635252928
ONEWEB-0171             
1 48070U 21025AE  26161.16229311 -.00000389  00000+0 -10998-2 0  9990
2 48070  87.8947 321.6292 0001723  95.6177 264.5148 13.13470163252690
ONEWEB-0172             
1 48071U 21025AF  26160.98962208  .00000077  00000+0  17657-3 0  9991
2 48071  87.8954 321.6533 0001696  99.8683 260.2638 13.13470375253563
ONEWEB-0174             
1 48072U 21025AG  26161.19954814  .00000312  00000+0  81851-3 0  9999
2 48072  87.8951 321.6111 0001974  97.0113 263.1240 13.13470203252919
ONEWEB-0175             
1 48073U 21025AH  26161.15383285 -.00000209  00000+0 -60732-3 0  9996
2 48073  87.8959 321.6037 0001459  96.6125 263.5170 13.13469555252566
ONEWEB-0177             
1 48074U 21025AJ  26161.16567698 -.00000339  00000+0 -96452-3 0  9992
2 48074  87.8955 321.6200 0001984 100.1445 259.9908 13.13470781252756
ONEWEB-0178             
1 48075U 21025AK  26161.48913492 -.00000102  00000+0 -31316-3 0  9991
2 48075  87.8939 321.5694 0001633 102.6380 257.4932 13.13471990252844
ONEWEB-0108             
1 48076U 21025AL  26161.14367417  .00000068  00000+0  15074-3 0  9997
2 48076  87.8959 321.6157 0001940  89.0136 271.1216 13.13469615252726
ONEWEB-0169             
1 48077U 21025AM  26161.48054449 -.00000156  00000+0 -46299-3 0  9996
2 48077  87.8950 321.5572 0001944  96.5667 263.5684 13.13470625251427
ONEWEB-0176             
1 48210U 21031A   26161.63286313 -.00000021  00000+0 -90444-4 0  9999
2 48210  87.8959 291.0057 0001828 102.9041 257.2293 13.14503250247459
ONEWEB-0184             
1 48211U 21031B   26161.60589813 -.00000108  00000+0 -32470-3 0  9998
2 48211  87.8969 291.0113 0001279 121.2737 238.8518 13.14502768247425
ONEWEB-0179             
1 48212U 21031C   26161.28607341  .00000185  00000+0  55453-4 0  9990
2 48212  87.8984 288.6338 0218635 279.9487  77.7093 14.25518440248069
ONEWEB-0180             
1 48213U 21031D   26161.60907342 -.00000128  00000+0 -37868-3 0  9999
2 48213  87.8967 291.0070 0002045 113.1331 247.0014 13.14502804247355
ONEWEB-0218             
1 48214U 21031E   26161.63127335 -.00000019  00000+0 -85715-4 0  9993
2 48214  87.8967 291.0016 0001557 128.2727 231.8544 13.14502337247517
ONEWEB-0209             
1 48215U 21031F   26161.62015875 -.00000417  00000+0 -11583-2 0  9990
2 48215  87.8958 291.0214 0002057 105.2014 254.9344 13.14503006247516
